CCSDS_OMM_VERS = 2.0
CREATION_DATE = 2020-09-10T18:14:17.271067
ORIGINATOR = N/A

OBJECT_NAME          = ISS (ZARYA)
OBJECT_ID            = 1998-067A
CENTER_NAME          = EARTH
REF_FRAME            = TEME
TIME_SYSTEM          = UTC
MEAN_ELEMENT_THEORY  = SGP/SGP4


EPOCH                = 2008-09-20T12:25:40.104192
MEAN_MOTION          =  15.72125391 [rev/day]
ECCENTRICITY         =   0.0006703
INCLINATION          =  51.6416 [deg]
RA_OF_ASC_NODE       = 247.4627 [deg]
ARG_OF_PERICENTER    = 130.5360 [deg]
MEAN_ANOMALY         = 325.0288 [deg]
GM                   = 398600.8 [km**3/s**2]

EPHEMERIS_TYPE       = 0
CLASSIFICATION_TYPE  = U
NORAD_CAT_ID         = 25544
ELEMENT_SET_NO       = 292
REV_AT_EPOCH         = 56353
BSTAR                = -0.000011606 [1/ER]
MEAN_MOTION_DOT      = -0.00002182 [rev/day**2]
MEAN_MOTION_DDOT     = 0.0 [rev/day**3]

COV_REF_FRAME        = RSW
CX_X                 =  5.801003223606e-05
CY_X                 = -1.847351188354e-04
CY_Y                 =  9.986626250669e-04
CZ_X                 =  1.111847741694e-04
CZ_Y                 = -4.879102127527e-04
CZ_Z                 =  2.778976575361e-04
CX_DOT_X             =  1.582650652875e-07
CX_DOT_Y             = -7.586297933968e-07
CX_DOT_Z             =  3.543611214456e-07
CX_DOT_X_DOT         =  6.486215267840e-10
CY_DOT_X             =  5.260804109224e-08
CY_DOT_Y             = -4.760038115589e-07
CY_DOT_Z             =  2.366232618878e-07
CY_DOT_X_DOT         =  2.749672284884e-10
CY_DOT_Y_DOT         =  3.431249377330e-10
CZ_DOT_X             =  7.384496961383e-08
CZ_DOT_Y             = -6.427051719816e-08
CZ_DOT_Z             =  5.041464411859e-08
CZ_DOT_X_DOT         =  1.594165210484e-10
CZ_DOT_Y_DOT         = -1.283024034331e-10
CZ_DOT_Z_DOT         =  2.370517255391e-10
